{"type":"FeatureCollection","features":[{"type":"Feature","properties":{"baujahrZusatz":"","untergruppe1":"","kurzbezeichnung":"Allee","baujahr":"1910","ort":"Deutz","plz":50679,"bezirk":1,"strasse":"Adolphstrasse"},"geometry":{"type":"Point","coordinates":[6.9767532,50.9353499]},"id":"1"},{"type":"Feature","properties":{"baujahrZusatz":"um","untergruppe1":"","kurzbezeichnung":"Allee","baujahr":"1900","ort":"Neustadt-Süd","plz":50678,"bezirk":1,"strasse":"Agrippinaufer "},"geometry":{"type":"Point","coordinates":[6.9672721,50.9219475]},"id":"2"},{"type":"Feature","properties":{"baujahrZusatz":"","untergruppe1":"","kurzbezeichnung":"Lagergebäude 22 (sog. Siebengebirge) u. ehem. Rheinbastion","baujahr":"1908","ort":"Neustadt-Süd","plz":50678,"bezirk":1,"strasse":"Agrippinawerft "},"geometry":{"type":"Point","coordinates":[6.9686769,50.9207509]},"id":"3"},{"type":"Feature","properties":{"baujahrZusatz":"um","untergruppe1":"","kurzbezeichnung":"Drehbrücke","baujahr":"1910","ort":"Deutz","plz":50679,"bezirk":1,"strasse":"Alfred-Schütte-Allee "},"geometry":{"type":"Point","coordinates":[6.9742625,50.9282184]},"id":"4"},{"type":"Feature","properties":{"baujahrZusatz":"um","untergruppe1":"","kurzbezeichnung":"Allee","baujahr":"1890","ort":"Neustadt-Süd","plz":50678,"bezirk":1,"strasse":"Alteburger Strasse"},"geometry":{"type":"Point","coordinates":[6.9621025,50.9208162]},"id":"5"},{"type":"Feature","properties":{"baujahrZusatz":"","untergruppe1":"","kurzbezeichnung":"Litfaßsäule","baujahr":"19","ort":"Neuehrenfeld","plz":50823,"bezirk":4,"strasse":"Parkgürtel"},"geometry":{"type":"Point","coordinates":[6.9320606,50.9604188]},"id":"9"},{"type":"Feature","properties":{"baujahrZusatz":"","untergruppe1":"","kurzbezeichnung":"Schule","baujahr":"1900","ort":"Neustadt-Nord","plz":50670,"bezirk":1,"strasse":"Balthasarstrasse"},"geometry":{"type":"Point","coordinates":[6.96021654664426,50.95300535]},"id":"20"},{"type":"Feature","properties":{"baujahrZusatz":"um","untergruppe1":"","kurzbezeichnung":"Allee","baujahr":"1900","ort":"Altstadt-Süd","plz":50678,"bezirk":1,"strasse":"Bayenstrasse"},"geometry":{"type":"Point","coordinates":[6.963628,50.9272106]},"id":"21"},{"type":"Feature","properties":{"baujahrZusatz":"um","untergruppe1":"","kurzbezeichnung":"Allee","baujahr":"1890","ort":"Neustadt-Süd","plz":50674,"bezirk":1,"strasse":"Beethovenstrasse"},"geometry":{"type":"Point","coordinates":[6.9398945,50.9330545]},"id":"23"},{"type":"Feature","properties":{"baujahrZusatz":"um","untergruppe1":"","kurzbezeichnung":"Büro- u. Geschäftshaus","baujahr":"1910","ort":"Altstadt-Nord","plz":50667,"bezirk":1,"strasse":"Brückenstrasse"},"geometry":{"type":"Point","coordinates":[6.9548121,50.9379742]},"id":"25"},{"type":"Feature","properties":{"baujahrZusatz":"","untergruppe1":"","kurzbezeichnung":"KD-Wegekreuz","baujahr":"18","ort":"Neustadt-Nord","plz":50674,"bezirk":1,"strasse":"Brüsseler Platz"},"geometry":{"type":"Point","coordinates":[6.9326464,50.9381879]},"id":"26"},{"type":"Feature","properties":{"baujahrZusatz":"","untergruppe1":"","kurzbezeichnung":"Kinderspielplatz / Geländer","baujahr":"1890","ort":"Altstadt-Süd","plz":50678,"bezirk":1,"strasse":"Buschgasse "},"geometry":{"type":"Point","coordinates":[6.960852,50.926414]},"id":"27"},{"type":"Feature","properties":{"baujahrZusatz":"vor","untergruppe1":"","kurzbezeichnung":"Kirche, Schnütgen-Museum","baujahr":"1150","ort":"Altstadt-Süd","plz":50676,"bezirk":1,"strasse":"Cäcilienkloster "},"geometry":{"type":"Point","coordinates":[6.9520289,50.9348808]},"id":"28"},{"type":"Feature","properties":{"baujahrZusatz":"","untergruppe1":"","kurzbezeichnung":"Stadttor u. Platzgestaltung","baujahr":"13","ort":"Neustadt-Süd","plz":50678,"bezirk":1,"strasse":"Chlodwigplatz "},"geometry":{"type":"Point","coordinates":[6.959645870898,50.92107365]},"id":"29"},{"type":"Feature","properties":{"baujahrZusatz":"","untergruppe1":"","kurzbezeichnung":"Allee","baujahr":"20","ort":"Neustadt-Nord","plz":50668,"bezirk":1,"strasse":"Clever Strasse"},"geometry":{"type":"Point","coordinates":[6.9665792,50.9546694]},"id":"30"},{"type":"Feature","properties":{"baujahrZusatz":"","untergruppe1":"","kurzbezeichnung":"Steinerne Pumpe","baujahr":"18","ort":"Altstadt-Nord","plz":50668,"bezirk":1,"strasse":"Dagobertstrasse"},"geometry":{"type":"Point","coordinates":[6.9627071,50.9480059]},"id":"31"},{"type":"Feature","properties":{"baujahrZusatz":"","untergruppe1":"","kurzbezeichnung":"Stadtbücherei","baujahr":"1913","ort":"Deutz","plz":50679,"bezirk":1,"strasse":"Deutz-Kalker-Strasse"},"geometry":{"type":"Point","coordinates":[6.98336694278729,50.9370627]},"id":"33"},{"type":"Feature","properties":{"baujahrZusatz":"","untergruppe1":"","kurzbezeichnung":"Platzgestaltung / Grünanlage","baujahr":"19","ort":"Neustadt-Süd","plz":50677,"bezirk":1,"strasse":"Eifelplatz "},"geometry":{"type":"Point","coordinates":[6.94425205178361,50.9239671]},"id":"35"},{"type":"Feature","properties":{"baujahrZusatz":"","untergruppe1":"","kurzbezeichnung":"Stadttor","baujahr":"13","ort":"Altstadt-Nord","plz":50668,"bezirk":1,"strasse":"Eigelstein"},"geometry":{"type":"Point","coordinates":[6.9574331,50.949383]},"id":"37"},{"type":"Feature","properties":{"baujahrZusatz":"um","untergruppe1":"","kurzbezeichnung":"Wohn- u. Geschäftshaus","baujahr":"1890","ort":"Altstadt-Nord","plz":50668,"bezirk":1,"strasse":"Eigelstein "},"geometry":{"type":"Point","coordinates":[6.95643976258322,50.9482172]},"id":"38"},{"type":"Feature","properties":{"baujahrZusatz":"um ","untergruppe1":"","kurzbezeichnung":"Wohnhaus (Hänneschen-Theater)","baujahr":"1935","ort":"Altstadt-Nord","plz":50667,"bezirk":1,"strasse":"Eisenmarkt"},"geometry":{"type":"Point","coordinates":[6.96165627448218,50.9371754]},"id":"39"},{"type":"Feature","properties":{"baujahrZusatz":"","untergruppe1":"","kurzbezeichnung":"nur Hinweis auf DL 34","baujahr":"0","ort":"Deutz","plz":50679,"bezirk":1,"strasse":"Eitorferstrasse"},"geometry":{"type":"Point","coordinates":[6.9854868,50.9356285]},"id":"40"},{"type":"Feature","properties":{"baujahrZusatz":"um","untergruppe1":"","kurzbezeichnung":"Baumreihen","baujahr":"1900","ort":"Altstadt-Nord","plz":50667,"bezirk":1,"strasse":"Frankenwerft "},"geometry":{"type":"Point","coordinates":[6.9622996,50.9397806]},"id":"41"},{"type":"Feature","properties":{"baujahrZusatz":"","untergruppe1":"","kurzbezeichnung":"Wohn- u. Geschäftshaus (ehem. Stapelhaus)","baujahr":"1900","ort":"Altstadt-Nord","plz":50667,"bezirk":1,"strasse":"Frankenwerft "},"geometry":{"type":"Point","coordinates":[6.9623895,50.9382713]},"id":"42"},{"type":"Feature","properties":{"baujahrZusatz":"um","untergruppe1":"","kurzbezeichnung":"Wohnhaus","baujahr":"1895","ort":"Altstadt-Nord","plz":50672,"bezirk":1,"strasse":"Friesenwall "},"geometry":{"type":"Point","coordinates":[6.94122897147727,50.93983635]},"id":"44"},{"type":"Feature","properties":{"baujahrZusatz":"","untergruppe1":"","kurzbezeichnung":"Mariensäule","baujahr":"1858","ort":"Altstadt-Nord","plz":50670,"bezirk":1,"strasse":"Gereonsdriesch "},"geometry":{"type":"Point","coordinates":[6.946344,50.9428849]},"id":"45"},{"type":"Feature","properties":{"baujahrZusatz":"","untergruppe1":"","kurzbezeichnung":"Platzanlage / Grünanlage","baujahr":"0","ort":"Altstadt-Nord","plz":50670,"bezirk":1,"strasse":"Gereonsdriesch "},"geometry":{"type":"Point","coordinates":[6.946344,50.9428849]},"id":"46"},{"type":"Feature","properties":{"baujahrZusatz":"","untergruppe1":"","kurzbezeichnung":"Schule (Portal, Eingang Emeniusstr.)","baujahr":"1913","ort":"Deutz","plz":50679,"bezirk":1,"strasse":"Gotenring "},"geometry":{"type":"Point","coordinates":[6.97884277261864,50.93588165]},"id":"49"},{"type":"Feature","properties":{"baujahrZusatz":"","untergruppe1":"","kurzbezeichnung":"Fastnachtsbrunnen","baujahr":"1913","ort":"Altstadt-Nord","plz":50667,"bezirk":1,"strasse":"Gülichplatz"},"geometry":{"type":"Point","coordinates":[6.9580978,50.9374893]},"id":"50"},{"type":"Feature","properties":{"baujahrZusatz":"","untergruppe1":"","kurzbezeichnung":"Teile der Fassade u. d. Innenausstattung","baujahr":"1911","ort":"Altstadt-Nord","plz":50667,"bezirk":1,"strasse":"Gürzenichstrasse "},"geometry":{"type":"Point","coordinates":[6.9579776,50.9362752]},"id":"51"},{"type":"Feature","properties":{"baujahrZusatz":"um","untergruppe1":"","kurzbezeichnung":"Allee","baujahr":"1890","ort":"Neustadt-Süd","plz":50677,"bezirk":1,"strasse":"Hardefuststrasse"},"geometry":{"type":"Point","coordinates":[6.9469058,50.9227238]},"id":"56"},{"type":"Feature","properties":{"baujahrZusatz":"","untergruppe1":"","kurzbezeichnung":"Platzgestaltung / Grünanlage","baujahr":"1910","ort":"Deutz","plz":50679,"bezirk":1,"strasse":"Helenenwall"},"geometry":{"type":"Point","coordinates":[6.9728858,50.9326185]},"id":"57"},{"type":"Feature","properties":{"baujahrZusatz":"","untergruppe1":"","kurzbezeichnung":"Bunker","baujahr":"1942","ort":"Deutz","plz":50679,"bezirk":1,"strasse":"Helenenwall"},"geometry":{"type":"Point","coordinates":[6.9757471,50.9340556]},"id":"58"},{"type":"Feature","properties":{"baujahrZusatz":"","untergruppe1":"","kurzbezeichnung":"Heumarktdenkmal/ Reiterstandbild Friedrich-Wilhelm","baujahr":"1865","ort":"Altstadt-Nord","plz":50667,"bezirk":1,"strasse":"Heumarkt "},"geometry":{"type":"Point","coordinates":[6.9609135,50.9360088]},"id":"60"},{"type":"Feature","properties":{"baujahrZusatz":"um","untergruppe1":"","kurzbezeichnung":"Allee","baujahr":"1900","ort":"Altstadt-Süd","plz":50676,"bezirk":1,"strasse":"Holzmarkt"},"geometry":{"type":"Point","coordinates":[6.962777,50.9299398]},"id":"64"},{"type":"Feature","properties":{"baujahrZusatz":"um","untergruppe1":"","kurzbezeichnung":"Malakoffturm / Teil der ehem. Rheinbefestigung","baujahr":"1853","ort":"Altstadt-Süd","plz":50676,"bezirk":1,"strasse":"Holzmarkt "},"geometry":{"type":"Point","coordinates":[6.962777,50.9299398]},"id":"65"},{"type":"Feature","properties":{"baujahrZusatz":"","untergruppe1":"","kurzbezeichnung":"Drehbrücke, Geländer, Skulptur Der Tauzieher","baujahr":"1908","ort":"Altstadt-Süd","plz":50676,"bezirk":1,"strasse":"Holzmarkt"},"geometry":{"type":"Point","coordinates":[6.962777,50.9299398]},"id":"66"},{"type":"Feature","properties":{"baujahrZusatz":"um","untergruppe1":"","kurzbezeichnung":"Baumreihe","baujahr":"1890","ort":"Neustadt-Süd","plz":50678,"bezirk":1,"strasse":"Karolingerring"},"geometry":{"type":"Point","coordinates":[6.9579189,50.9214739]},"id":"71"},{"type":"Feature","properties":{"baujahrZusatz":"","untergruppe1":"","kurzbezeichnung":"Baumreihe","baujahr":"19","ort":"Deutz","plz":50679,"bezirk":1,"strasse":"Kasemattenstrasse"},"geometry":{"type":"Point","coordinates":[6.9764165,50.9381353]},"id":"72"},{"type":"Feature","properties":{"baujahrZusatz":"","untergruppe1":"","kurzbezeichnung":"Messe- u. Ausstellungshallen, Turm","baujahr":"1925","ort":"Deutz","plz":50679,"bezirk":1,"strasse":"Kennedy-Ufer"},"geometry":{"type":"Point","coordinates":[6.9692227,50.9408901]},"id":"73"},{"type":"Feature","properties":{"baujahrZusatz":"","untergruppe1":"","kurzbezeichnung":"KD -Kriegerdenkmal","baujahr":"1930","ort":"Deutz","plz":50679,"bezirk":1,"strasse":"Kennedy-Ufer "},"geometry":{"type":"Point","coordinates":[6.9692227,50.9408901]},"id":"74"},{"type":"Feature","properties":{"baujahrZusatz":"um","untergruppe1":"","kurzbezeichnung":"Allee","baujahr":"1890","ort":"Neustadt-Süd","plz":50677,"bezirk":1,"strasse":"Kleingedankstrasse"},"geometry":{"type":"Point","coordinates":[6.9521162,50.9236117]},"id":"75"},{"type":"Feature","properties":{"baujahrZusatz":"","untergruppe1":"","kurzbezeichnung":"KD-Kolpingdenkmal","baujahr":"1903","ort":"Altstadt-Nord","plz":50667,"bezirk":1,"strasse":"Kolpingplatz"},"geometry":{"type":"Point","coordinates":[6.9540777,50.9391876]},"id":"76"},{"type":"Feature","properties":{"baujahrZusatz":"","untergruppe1":"","kurzbezeichnung":"röm. Stadtmauerreste \"Lysolphturm\", KD","baujahr":"1","ort":"Altstadt-Nord","plz":50667,"bezirk":1,"strasse":"Komödienstrasse"},"geometry":{"type":"Point","coordinates":[6.9529114,50.9415426]},"id":"77"},{"type":"Feature","properties":{"baujahrZusatz":"","untergruppe1":"","kurzbezeichnung":"KD-(Albertus-Magnus-Statue)","baujahr":"19","ort":"Altstadt-Nord","plz":50667,"bezirk":1,"strasse":"Komödienstrasse"},"geometry":{"type":"Point","coordinates":[6.9529114,50.9415426]},"id":"78"},{"type":"Feature","properties":{"baujahrZusatz":"um","untergruppe1":"","kurzbezeichnung":"Allee","baujahr":"1900","ort":"Altstadt-Nord","plz":50668,"bezirk":1,"strasse":"Konrad-Adenauer-Ufer"},"geometry":{"type":"Point","coordinates":[6.9622676,50.9423077]},"id":"79"},{"type":"Feature","properties":{"baujahrZusatz":"","untergruppe1":"","kurzbezeichnung":"\"Weckschnapp\" mit ehem. Befestigungsturm","baujahr":"18","ort":"Altstadt-Nord","plz":50668,"bezirk":1,"strasse":"Konrad-Adenauer-Ufer"},"geometry":{"type":"Point","coordinates":[6.9622676,50.9423077]},"id":"81"},{"type":"Feature","properties":{"baujahrZusatz":"","untergruppe1":"","kurzbezeichnung":"Panoramerestaurant auf Stadtbefestigungsresten","baujahr":"1834","ort":"Altstadt-Nord","plz":50668,"bezirk":1,"strasse":"Konrad-Adenauer-Ufer"},"geometry":{"type":"Point","coordinates":[6.9622676,50.9423077]},"id":"82"},{"type":"Feature","properties":{"baujahrZusatz":"","untergruppe1":"","kurzbezeichnung":"Immunitätstor / Dreikönigenpförtchen","baujahr":"14","ort":"Altstadt-Süd","plz":50676,"bezirk":1,"strasse":"Lichhof "},"geometry":{"type":"Point","coordinates":[6.95901640564069,50.93468575]},"id":"83"},{"type":"Feature","properties":{"baujahrZusatz":"um","untergruppe1":"","kurzbezeichnung":"Wohnhaus","baujahr":"1935","ort":"Altstadt-Nord","plz":50667,"bezirk":1,"strasse":"Lintgasse "},"geometry":{"type":"Point","coordinates":[6.9613606,50.9381485]},"id":"84"},{"type":"Feature","properties":{"baujahrZusatz":"","untergruppe1":"","kurzbezeichnung":"Schule","baujahr":"1899","ort":"Neustadt-Süd","plz":50674,"bezirk":1,"strasse":"Lochnerstrasse"},"geometry":{"type":"Point","coordinates":[6.9355173231055,50.930003]},"id":"85"},{"type":"Feature","properties":{"baujahrZusatz":"","untergruppe1":"","kurzbezeichnung":"Allee","baujahr":"19","ort":"Neustadt-Süd","plz":50677,"bezirk":1,"strasse":"Lothringer Strasse"},"geometry":{"type":"Point","coordinates":[6.9485746,50.9242706]},"id":"86"},{"type":"Feature","properties":{"baujahrZusatz":"nach ","untergruppe1":"","kurzbezeichnung":"Allee","baujahr":"1912","ort":"Neustadt-Nord","plz":50672,"bezirk":1,"strasse":"Ludolf-Camphausen-Strasse"},"geometry":{"type":"Point","coordinates":[6.9320677,50.9423232]},"id":"87"},{"type":"Feature","properties":{"baujahrZusatz":"um","untergruppe1":"","kurzbezeichnung":"Wohn- u. Geschäftshaus","baujahr":"1890","ort":"Neustadt-Süd","plz":50674,"bezirk":1,"strasse":"Luxemburger Strasse"},"geometry":{"type":"Point","coordinates":[6.9380532,50.9259957]},"id":"88"},{"type":"Feature","properties":{"baujahrZusatz":"um","untergruppe1":"","kurzbezeichnung":"Wohn- u. Geschäftshaus","baujahr":"1890","ort":"Neustadt-Süd","plz":50674,"bezirk":1,"strasse":"Luxemburger Strasse"},"geometry":{"type":"Point","coordinates":[6.93758437108108,50.92559635]},"id":"89"},{"type":"Feature","properties":{"baujahrZusatz":"um","untergruppe1":"","kurzbezeichnung":"Allee","baujahr":"1900","ort":"Neustadt-Süd","plz":50678,"bezirk":1,"strasse":"Mainzer Strasse"},"geometry":{"type":"Point","coordinates":[6.9651275,50.9166744]},"id":"90"},{"type":"Feature","properties":{"baujahrZusatz":"","untergruppe1":"","kurzbezeichnung":"Wohn- u. Geschäftshaus","baujahr":"1937","ort":"Altstadt-Nord","plz":50667,"bezirk":1,"strasse":"Markmannsgasse "},"geometry":{"type":"Point","coordinates":[6.9621187,50.9367867]},"id":"91"},{"type":"Feature","properties":{"baujahrZusatz":"","untergruppe1":"","kurzbezeichnung":"Steinerne Pumpe","baujahr":"18","ort":"Altstadt-Nord","plz":50667,"bezirk":1,"strasse":"Marsplatz "},"geometry":{"type":"Point","coordinates":[6.9594795,50.9376335]},"id":"92"},{"type":"Feature","properties":{"baujahrZusatz":"","untergruppe1":"","kurzbezeichnung":"Wolkenburg, ehem. Kloster","baujahr":"1735","ort":"Altstadt-Süd","plz":50676,"bezirk":1,"strasse":"Mauritiussteinweg"},"geometry":{"type":"Point","coordinates":[6.9454342,50.9323905]},"id":"94"},{"type":"Feature","properties":{"baujahrZusatz":"","untergruppe1":"","kurzbezeichnung":"Feuerwache","baujahr":"1888","ort":"Neustadt-Nord","plz":50670,"bezirk":1,"strasse":"Melchiorstrasse"},"geometry":{"type":"Point","coordinates":[6.95458580184544,50.9521542]},"id":"95"},{"type":"Feature","properties":{"baujahrZusatz":"um","untergruppe1":"","kurzbezeichnung":"Allee","baujahr":"1900","ort":"Neustadt-Nord","plz":50668,"bezirk":1,"strasse":"Merlostrasse"},"geometry":{"type":"Point","coordinates":[6.9634428,50.9543987]},"id":"96"},{"type":"Feature","properties":{"baujahrZusatz":"","untergruppe1":"","kurzbezeichnung":"Allee","baujahr":"19","ort":"Neustadt-Nord","plz":50674,"bezirk":1,"strasse":"Moltkestrasse"},"geometry":{"type":"Point","coordinates":[6.9327427,50.9381833]},"id":"97"},{"type":"Feature","properties":{"baujahrZusatz":"","untergruppe1":"","kurzbezeichnung":"Allee","baujahr":"19","ort":"Neustadt-Süd","plz":50674,"bezirk":1,"strasse":"Moselstrasse"},"geometry":{"type":"Point","coordinates":[6.9375874,50.927912]},"id":"98"},{"type":"Feature","properties":{"baujahrZusatz":"","untergruppe1":"","kurzbezeichnung":"Fabrik-,Verwaltung- u. Wohngebäude (nur Vorderfassade Peters Brauhaus)","baujahr":"1895","ort":"Altstadt-Nord","plz":50667,"bezirk":1,"strasse":"Mühlengasse"},"geometry":{"type":"Point","coordinates":[6.9609834,50.9392091]},"id":"99"},{"type":"Feature","properties":{"baujahrZusatz":"","untergruppe1":"","kurzbezeichnung":"Platzgestaltung / Grünanlage","baujahr":"1740","ort":"Altstadt-Süd","plz":50667,"bezirk":1,"strasse":"Neumarkt "},"geometry":{"type":"Point","coordinates":[6.9464629,50.9364057]},"id":"100"}]}